{
    "links": {
        "self": "http://www.neowsapp.com/rest/v1/neo/3574132?api_key=iIulBulltgU6a56xZRHN4H3l9WmuAYTsLGpBGhQ2"
    },
    "id": "3574132",
    "neo_reference_id": "3574132",
    "name": "(2011 OV17)",
    "designation": "2011 OV17",
    "nasa_jpl_url": "http://ssd.jpl.nasa.gov/sbdb.cgi?sstr=3574132",
    "absolute_magnitude_h": 23.3,
    "estimated_diameter": {
        "kilometers": {
            "estimated_diameter_min": 0.058150704,
            "estimated_diameter_max": 0.130028927
        },
        "meters": {
            "estimated_diameter_min": 58.1507039646,
            "estimated_diameter_max": 130.0289270043
        },
        "miles": {
            "estimated_diameter_min": 0.0361331611,
            "estimated_diameter_max": 0.0807962044
        },
        "feet": {
            "estimated_diameter_min": 190.7831555951,
            "estimated_diameter_max": 426.6041048727
        }
    },
    "is_potentially_hazardous_asteroid": false,
    "close_approach_data": [
        {
            "close_approach_date": "2011-08-14",
            "close_approach_date_full": "2011-Aug-14 16:30",
            "epoch_date_close_approach": 1313339400000,
            "relative_velocity": {
                "kilometers_per_second": "4.1161019139",
                "kilometers_per_hour": "14817.9668901831",
                "miles_per_hour": "9207.3083712918"
            },
            "miss_distance": {
                "astronomical": "0.2308972848",
                "lunar": "89.8190437872",
                "kilometers": "34541741.994863376",
                "miles": "21463243.2117955488"
            },
            "orbiting_body": "Earth"
        }
    ],
    "orbital_data": {
        "orbit_id": "6",
        "orbit_determination_date": "2017-04-06 08:53:06",
        "first_observation_date": "2011-07-28",
        "last_observation_date": "2011-08-29",
        "data_arc_in_days": 32,
        "observations_used": 24,
        "orbit_uncertainty": "7",
        "minimum_orbit_intersection": ".227802",
        "jupiter_tisserand_invariant": "3.619",
        "epoch_osculation": "2459000.5",
        "eccentricity": ".4123000948466316",
        "semi_major_axis": "2.110436217711225",
        "inclination": "6.180584361486128",
        "ascending_node_longitude": "137.9627902659072",
        "orbital_period": "1119.842056764868",
        "perihelion_distance": "1.240303164981121",
        "perihelion_argument": "183.9256091012874",
        "aphelion_distance": "2.980569270441329",
        "perihelion_time": "2459145.333163057942",
        "mean_anomaly": "313.4399173652334",
        "mean_motion": ".3214739059184922",
        "equinox": "J2000",
        "orbit_class": {
            "orbit_class_type": "AMO",
            "orbit_class_description": "Near-Earth asteroid orbits similar to that of 1221 Amor",
            "orbit_class_range": "1.017 AU < q (perihelion) < 1.3 AU"
        }
    },
    "is_sentry_object": false
}